NORAD_CAT_ID,OBJECT_NAME,OBJECT_TYPE,EPOCH,MEAN_MOTION,ECCENTRICITY,INCLINATION,RA_OF_ASC_NODE,ARG_OF_PERICENTER,MEAN_ANOMALY,BSTAR,MEAN_MOTION_DOT,MEAN_MOTION_DDOT,TLE_LINE0,TLE_LINE1,TLE_LINE2,SEMIMAJOR_AXIS,PERIOD,APOGEE,PERIGEE,DECAYED
56473.0,STARLINK-5486,PAYLOAD,2024-06-25 14:04:12,14.98328927,0.0003006,69.9993,253.0211,264.9022,95.1794,-2.8486e-05,-4.33e-06,0.0,0 STARLINK-5486,1 56473U 23064AB  24177.58625972 -.00000433  00000-0 -28486-4 0  9999,2 56473  69.9993 253.0211 0003006 264.9022  95.1794 14.98328927 62556,6950.196,96.107,574.15,569.972,0.0
56473.0,STARLINK-5486,PAYLOAD,2024-06-26 10:53:57,14.98330885,0.0003029,69.9993,250.8332,263.983,96.0984,-2.4701e-05,-3.88e-06,0.0,0 STARLINK-5486,1 56473U 23064AB  24178.45413749 -.00000388  00000-0 -24701-4 0  9998,2 56473  69.9993 250.8332 0003029 263.9830  96.0984 14.98330885 62687,6950.19,96.107,574.16,569.95,0.0
56473.0,STARLINK-5486,PAYLOAD,2024-06-27 12:32:06,14.98329941,0.0003245,69.9987,248.1388,269.3653,90.7134,1.6323e-05,1.02e-06,0.0,0 STARLINK-5486,1 56473U 23064AB  24179.52229648  .00000102  00000-0  16323-4 0  9993,2 56473  69.9987 248.1388 0003245 269.3653  90.7134 14.98329941 63202,6950.193,96.107,574.313,569.803,0.0
56473.0,STARLINK-5486,PAYLOAD,2024-06-27 22:08:54,14.98330154,0.000336,69.9984,247.1282,270.6572,89.4202,2.5966e-06,-6.2e-07,0.0,0 STARLINK-5486,1 56473U 23064AB  24179.92285622 -.00000062  00000-0  25966-5 0  9991,2 56473  69.9984 247.1282 0003360 270.6572  89.4202 14.98330154 62909,6950.192,96.107,574.393,569.722,0.0
56473.0,STARLINK-5486,PAYLOAD,2024-06-28 12:34:07,14.98331129,0.0003368,69.9982,245.6134,270.5426,89.5348,2.3923e-05,1.92e-06,0.0,0 STARLINK-5486,1 56473U 23064AB  24180.52369529  .00000192  00000-0  23923-4 0  9991,2 56473  69.9982 245.6134 0003368 270.5426  89.5348 14.98331129 63356,6950.189,96.107,574.395,569.714,0.0
56473.0,STARLINK-5486,PAYLOAD,2024-06-28 14:10:15,14.98332496,0.0003352,69.9983,245.445,270.4836,89.5939,3.9654e-05,3.8e-06,0.0,0 STARLINK-5486,1 56473U 23064AB  24180.59045394  .00000380  00000-0  39654-4 0  9996,2 56473  69.9983 245.4450 0003352 270.4836  89.5939 14.98332496 63009,6950.185,96.107,574.38,569.72,0.0
56473.0,STARLINK-5486,PAYLOAD,2024-06-28 22:10:55,14.98321723,0.0003282,69.9983,244.6032,270.498,89.5803,0.00013751,1.548e-05,0.0,0 STARLINK-5486,1 56473U 23064AB  24180.92425851  .00001548  00000-0  13751-3 0  9999,2 56473  69.9983 244.6032 0003282 270.4980  89.5803 14.98321723 63054,6950.218,96.108,574.365,569.802,0.0
56473.0,STARLINK-5486,PAYLOAD,2024-06-29 12:36:08,14.98331868,0.0003307,69.9983,243.0884,270.4165,89.6615,8.375e-06,7e-08,0.0,0 STARLINK-5486,1 56473U 23064AB  24181.52509479  .00000007  00000-0  83750-5 0  9992,2 56473  69.9983 243.0884 0003307 270.4165  89.6615 14.98331868 63508,6950.187,96.107,574.351,569.754,0.0
56473.0,STARLINK-5486,PAYLOAD,2024-06-29 14:12:16,14.98332362,0.0003305,69.9983,242.9201,270.415,89.663,1.3776e-05,7.1e-07,0.0,0 STARLINK-5486,1 56473U 23064AB  24181.59185425  .00000071  00000-0  13776-4 0  9991,2 56473  69.9983 242.9201 0003305 270.4150  89.6630 14.98332362 63159,6950.186,96.107,574.348,569.754,0.0
56473.0,STARLINK-5486,PAYLOAD,2024-06-30 11:02:01,14.98326714,0.000324,69.9984,240.7319,270.3733,89.7054,-1.7608e-06,-1.14e-06,0.0,0 STARLINK-5486,1 56473U 23064AB  24182.45973905 -.00000114  00000-0 -17608-5 0  9994,2 56473  69.9984 240.7319 0003240 270.3733  89.7054 14.98326714 63649,6950.203,96.107,574.32,569.816,0.0
56473.0,STARLINK-5486,PAYLOAD,2024-06-30 14:14:19,14.98302066,0.0003192,69.9984,240.3953,273.0849,86.9945,-0.00031519,-3.849e-05,0.0,0 STARLINK-5486,1 56473U 23064AB  24182.59328285 -.00003849  00000-0 -31519-3 0  9997,2 56473  69.9984 240.3953 0003192 273.0849  86.9945 14.98302066 63308,6950.279,96.109,574.363,569.926,0.0
56473.0,STARLINK-5486,PAYLOAD,2024-07-01 04:39:31,14.98311037,0.0003731,69.9981,238.8803,272.3515,87.7216,-0.00016194,-2.024e-05,0.0,0 STARLINK-5486,1 56473U 23064AB  24183.19411861 -.00002024  00000-0 -16194-3 0  9993,2 56473  69.9981 238.8803 0003731 272.3515  87.7216 14.98311037 63759,6950.252,96.108,574.71,569.523,0.0
56473.0,STARLINK-5486,PAYLOAD,2024-07-01 12:40:12,14.98316797,0.0003072,69.9986,238.0392,271.948,88.1327,-8.4982e-05,-1.107e-05,0.0,0 STARLINK-5486,1 56473U 23064AB  24183.52791693 -.00001107  00000-0 -84982-4 0  9996,2 56473  69.9986 238.0392 0003072 271.9480  88.1327 14.98316797 63805,6950.234,96.108,574.234,569.964,0.0
56473.0,STARLINK-5486,PAYLOAD,2024-07-01 20:40:51,14.98332591,0.0003197,69.9988,237.1975,274.8517,85.2277,-0.00023385,-2.882e-05,0.0,0 STARLINK-5486,1 56473U 23064AB  24183.86171221 -.00002882  00000-0 -23385-3 0  9992,2 56473  69.9988 237.1975 0003197 274.8517  85.2277 14.98332591 63852,6950.185,96.107,574.272,569.828,0.0
56473.0,STARLINK-5486,PAYLOAD,2024-07-02 14:18:20,14.98325126,0.0003335,69.9981,235.3453,274.0231,86.0547,4.6914e-05,4.67e-06,0.0,0 STARLINK-5486,1 56473U 23064AB  24184.59607324  .00000467  00000-0  46914-4 0  9990,2 56473  69.9981 235.3453 0003335 274.0231  86.0547 14.98325126 63603,6950.208,96.107,574.391,569.755,0.0
56473.0,STARLINK-5486,PAYLOAD,2024-07-03 04:43:33,14.98326585,0.000346,69.9978,233.8303,276.2181,83.8583,0.00011396,1.267e-05,0.0,0 STARLINK-5486,1 56473U 23064AB  24185.19691370  .00001267  00000-0  11396-3 0  9995,2 56473  69.9978 233.8303 0003460 276.2181  83.8583 14.98326585 64058,6950.203,96.107,574.473,569.664,0.0
56473.0,STARLINK-5486,PAYLOAD,2024-07-03 20:44:53,14.9833212,0.0003442,69.9979,232.147,275.6232,84.4535,0.00011853,1.322e-05,0.0,0 STARLINK-5486,1 56473U 23064AB  24185.86451013  .00001322  00000-0  11853-3 0  9997,2 56473  69.9979 232.1470 0003442 275.6232  84.4535 14.98332120 63792,6950.186,96.107,574.444,569.659,0.0
56473.0,STARLINK-5486,PAYLOAD,2024-07-04 04:45:33,14.98335537,0.0003442,69.9979,231.3054,275.6996,84.3771,8.7966e-05,9.57e-06,0.0,0 STARLINK-5486,1 56473U 23064AB  24186.19830778  .00000957  00000-0  87966-4 0  9995,2 56473  69.9979 231.3054 0003442 275.6996  84.3771 14.98335537 64201,6950.176,96.107,574.433,569.649,0.0
56473.0,STARLINK-5486,PAYLOAD,2024-07-04 12:46:13,14.98338566,0.0003457,69.9979,230.4637,275.4253,84.6512,8.4492e-05,9.15e-06,0.0,0 STARLINK-5486,1 56473U 23064AB  24186.53210424  .00000915  00000-0  84492-4 0  9998,2 56473  69.9979 230.4637 0003457 275.4253  84.6512 14.98338566 63893,6950.166,96.106,574.434,569.629,0.0
56473.0,STARLINK-5486,PAYLOAD,2024-07-04 20:46:53,14.98339131,0.0003466,69.9979,229.6219,275.3714,84.7049,7.2435e-05,7.72e-06,0.0,0 STARLINK-5486,1 56473U 23064AB  24186.86590206  .00000772  00000-0  72435-4 0  9998,2 56473  69.9979 229.6219 0003466 275.3714  84.7049 14.98339131 63941,6950.165,96.106,574.439,569.621,0.0
56473.0,STARLINK-5486,PAYLOAD,2024-07-05 04:47:34,14.98341087,0.0003454,69.9979,228.7802,275.1521,84.9243,4.6527e-05,4.62e-06,0.0,0 STARLINK-5486,1 56473U 23064AB  24187.19969921  .00000462  00000-0  46527-4 0  9998,2 56473  69.9979 228.7802 0003454 275.1521  84.9243 14.98341087 64357,6950.159,96.106,574.424,569.623,0.0
56473.0,STARLINK-5486,PAYLOAD,2024-07-05 12:48:13,14.98342783,0.0003455,69.9979,227.9386,275.1314,84.9451,5.9669e-05,6.19e-06,0.0,0 STARLINK-5486,1 56473U 23064AB  24187.53349503  .00000619  00000-0  59669-4 0  9999,2 56473  69.9979 227.9386 0003455 275.1314  84.9451 14.98342783 64047,6950.153,96.106,574.42,569.617,0.0
56473.0,STARLINK-5486,PAYLOAD,2024-07-06 04:49:34,14.98337888,0.0003409,69.9981,226.2552,275.0885,84.9885,-4.3065e-05,-6.07e-06,0.0,0 STARLINK-5486,1 56473U 23064AB  24188.20109635 -.00000607  00000-0 -43065-4 0  9996,2 56473  69.9981 226.2552 0003409 275.0885  84.9885 14.98337888 64500,6950.168,96.106,574.403,569.664,0.0
56473.0,STARLINK-5486,PAYLOAD,2024-07-06 12:50:14,14.98337637,0.000343,69.9984,225.4137,275.1187,84.958,-4.6471e-05,-6.48e-06,0.0,0 STARLINK-5486,1 56473U 23064AB  24188.53489471 -.00000648  00000-0 -46471-4 0  9990,2 56473  69.9984 225.4137 0003430 275.1187  84.9580 14.98337637 64192,6950.169,96.107,574.418,569.65,0.0
56473.0,STARLINK-5486,PAYLOAD,2024-07-06 19:14:47,14.98335747,0.0003413,69.9985,224.7404,275.4014,84.6755,-5.2433e-05,-7.19e-06,0.0,0 STARLINK-5486,1 56473U 23064AB  24188.80193472 -.00000719  00000-0 -52433-4 0  9997,2 56473  69.9985 224.7404 0003413 275.4014  84.6755 14.98335747 64231,6950.175,96.107,574.412,569.668,0.0
56473.0,STARLINK-5486,PAYLOAD,2024-07-07 04:51:35,14.98335963,0.0003386,69.9986,223.7305,275.369,84.7083,-7.2019e-05,-9.52e-06,0.0,0 STARLINK-5486,1 56473U 23064AB  24189.20249342 -.00000952  00000-0 -72019-4 0  9991,2 56473  69.9986 223.7305 0003386 275.3690  84.7083 14.98335963 64650,6950.174,96.107,574.393,569.686,0.0
56473.0,STARLINK-5486,PAYLOAD,2024-07-07 09:39:59,14.98333746,0.0003397,69.9988,223.2258,274.7758,85.3013,-8.6154e-05,-1.121e-05,0.0,0 STARLINK-5486,1 56473U 23064AB  24189.40277443 -.00001121  00000-0 -86154-4 0  9990,2 56473  69.9988 223.2258 0003397 274.7758  85.3013 14.98333746 64325,6950.181,96.107,574.407,569.685,0.0
56473.0,STARLINK-5486,PAYLOAD,2024-07-08 11:18:08,14.98329411,0.0003435,69.999,220.5329,272.0435,88.033,-1.9399e-05,-3.25e-06,0.0,0 STARLINK-5486,1 56473U 23064AB  24190.47093337 -.00000325  00000-0 -19399-4 0  9999,2 56473  69.9990 220.5329 0003435 272.0435  88.0330 14.98329411 64846,6950.195,96.107,574.447,569.672,0.0
56473.0,STARLINK-5486,PAYLOAD,2024-07-08 19:18:48,14.98330649,0.0003441,69.9991,219.6912,271.974,88.1025,2.3832e-06,-6.5e-07,0.0,0 STARLINK-5486,1 56473U 23064AB  24190.80473186 -.00000065  00000-0  23832-5 0  9998,2 56473  69.9991 219.6912 0003441 271.9740  88.1025 14.98330649 64531,6950.191,96.107,574.447,569.664,0.0
56473.0,STARLINK-5486,PAYLOAD,2024-07-09 11:20:09,14.98332051,0.0003473,69.9989,218.008,271.722,88.3542,3.1712e-05,2.85e-06,0.0,0 STARLINK-5486,1 56473U 23064AB  24191.47232934  .00000285  00000-0  31712-4 0  9994,2 56473  69.9989 218.0080 0003473 271.7220  88.3542 14.98332051 64998,6950.187,96.107,574.465,569.638,0.0
